<?xml version="1.0" encoding="UTF-8"?>
<ndm xmlns:xsi="http://www.w3.org/2001/XMLSchema-instance" xsi:noNamespaceSchemaLocation="https://sanaregistry.org/r/ndmxml_unqualified/ndmxml-2.0.0-master-2.0.xsd">
<omm id="CCSDS_OMM_VERS" version="2.0">
<header><CREATION_DATE/><ORIGINATOR/></header><body><segment><metadata><OBJECT_NAME>ONEWEB-0327</OBJECT_NAME><OBJECT_ID>2021-083L</OBJECT_ID><CENTER_NAME>EARTH</CENTER_NAME><REF_FRAME>TEME</REF_FRAME><TIME_SYSTEM>UTC</TIME_SYSTEM><MEAN_ELEMENT_THEORY>SGP4</MEAN_ELEMENT_THEORY></metadata><data><meanElements><EPOCH>2024-01-30T08:13:31.403712</EPOCH><MEAN_MOTION>13.18689883</MEAN_MOTION><ECCENTRICITY>.0001289</ECCENTRICITY><INCLINATION>87.9243</INCLINATION><RA_OF_ASC_NODE>148.3720</RA_OF_ASC_NODE><ARG_OF_PERICENTER>115.4894</ARG_OF_PERICENTER><MEAN_ANOMALY>244.6371</MEAN_ANOMALY></meanElements><tleParameters><EPHEMERIS_TYPE>0</EPHEMERIS_TYPE><CLASSIFICATION_TYPE>U</CLASSIFICATION_TYPE><NORAD_CAT_ID>49196</NORAD_CAT_ID><ELEMENT_SET_NO>999</ELEMENT_SET_NO><REV_AT_EPOCH>11551</REV_AT_EPOCH><BSTAR>.33256E-3</BSTAR><MEAN_MOTION_DOT>.144E-5</MEAN_MOTION_DOT><MEAN_MOTION_DDOT>0</MEAN_MOTION_DDOT></tleParameters></data></segment></body></omm>
<omm id="CCSDS_OMM_VERS" version="2.0">
<header><CREATION_DATE/><ORIGINATOR/></header><body><segment><metadata><OBJECT_NAME>ONEWEB-0328</OBJECT_NAME><OBJECT_ID>2021-083M</OBJECT_ID><CENTER_NAME>EARTH</CENTER_NAME><REF_FRAME>TEME</REF_FRAME><TIME_SYSTEM>UTC</TIME_SYSTEM><MEAN_ELEMENT_THEORY>SGP4</MEAN_ELEMENT_THEORY></metadata><data><meanElements><EPOCH>2024-01-30T08:09:17.099136</EPOCH><MEAN_MOTION>13.13466971</MEAN_MOTION><ECCENTRICITY>.0001586</ECCENTRICITY><INCLINATION>87.9007</INCLINATION><RA_OF_ASC_NODE>133.1853</RA_OF_ASC_NODE><ARG_OF_PERICENTER>104.5131</ARG_OF_PERICENTER><MEAN_ANOMALY>255.6174</MEAN_ANOMALY></meanElements><tleParameters><EPHEMERIS_TYPE>0</EPHEMERIS_TYPE><CLASSIFICATION_TYPE>U</CLASSIFICATION_TYPE><NORAD_CAT_ID>49197</NORAD_CAT_ID><ELEMENT_SET_NO>999</ELEMENT_SET_NO><REV_AT_EPOCH>11684</REV_AT_EPOCH><BSTAR>.39797E-2</BSTAR><MEAN_MOTION_DOT>.1466E-4</MEAN_MOTION_DOT><MEAN_MOTION_DDOT>0</MEAN_MOTION_DDOT></tleParameters></data></segment></body></omm>
<omm id="CCSDS_OMM_VERS" version="2.0">
<header><CREATION_DATE/><ORIGINATOR/></header><body><segment><metadata><OBJECT_NAME>ONEWEB-0331</OBJECT_NAME><OBJECT_ID>2021-083N</OBJECT_ID><CENTER_NAME>EARTH</CENTER_NAME><REF_FRAME>TEME</REF_FRAME><TIME_SYSTEM>UTC</TIME_SYSTEM><MEAN_ELEMENT_THEORY>SGP4</MEAN_ELEMENT_THEORY></metadata><data><meanElements><EPOCH>2024-01-30T08:41:59.750304</EPOCH><MEAN_MOTION>13.18685986</MEAN_MOTION><ECCENTRICITY>.0001406</ECCENTRICITY><INCLINATION>87.9244</INCLINATION><RA_OF_ASC_NODE>148.3489</RA_OF_ASC_NODE><ARG_OF_PERICENTER>105.7264</ARG_OF_PERICENTER><MEAN_ANOMALY>254.4023</MEAN_ANOMALY></meanElements><tleParameters><EPHEMERIS_TYPE>0</EPHEMERIS_TYPE><CLASSIFICATION_TYPE>U</CLASSIFICATION_TYPE><NORAD_CAT_ID>49198</NORAD_CAT_ID><ELEMENT_SET_NO>999</ELEMENT_SET_NO><REV_AT_EPOCH>11550</REV_AT_EPOCH><BSTAR>.23299E-3</BSTAR><MEAN_MOTION_DOT>.105E-5</MEAN_MOTION_DOT><MEAN_MOTION_DDOT>0</MEAN_MOTION_DDOT></tleParameters></data></segment></body></omm>
<omm id="CCSDS_OMM_VERS" version="2.0">
<header><CREATION_DATE/><ORIGINATOR/></header><body><segment><metadata><OBJECT_NAME>ONEWEB-0333</OBJECT_NAME><OBJECT_ID>2021-083P</OBJECT_ID><CENTER_NAME>EARTH</CENTER_NAME><REF_FRAME>TEME</REF_FRAME><TIME_SYSTEM>UTC</TIME_SYSTEM><MEAN_ELEMENT_THEORY>SGP4</MEAN_ELEMENT_THEORY></metadata><data><meanElements><EPOCH>2024-01-30T08:02:25.739232</EPOCH><MEAN_MOTION>13.13470022</MEAN_MOTION><ECCENTRICITY>.0001974</ECCENTRICITY><INCLINATION>87.9013</INCLINATION><RA_OF_ASC_NODE>133.1972</RA_OF_ASC_NODE><ARG_OF_PERICENTER>108.4379</ARG_OF_PERICENTER><MEAN_ANOMALY>251.6964</MEAN_ANOMALY></meanElements><tleParameters><EPHEMERIS_TYPE>0</EPHEMERIS_TYPE><CLASSIFICATION_TYPE>U</CLASSIFICATION_TYPE><NORAD_CAT_ID>49199</NORAD_CAT_ID><ELEMENT_SET_NO>999</ELEMENT_SET_NO><REV_AT_EPOCH>11685</REV_AT_EPOCH><BSTAR>.81918E-3</BSTAR><MEAN_MOTION_DOT>.312E-5</MEAN_MOTION_DOT><MEAN_MOTION_DDOT>0</MEAN_MOTION_DDOT></tleParameters></data></segment></body></omm>
<omm id="CCSDS_OMM_VERS" version="2.0">
<header><CREATION_DATE/><ORIGINATOR/></header><body><segment><metadata><OBJECT_NAME>ONEWEB-0334</OBJECT_NAME><OBJECT_ID>2021-083Q</OBJECT_ID><CENTER_NAME>EARTH</CENTER_NAME><REF_FRAME>TEME</REF_FRAME><TIME_SYSTEM>UTC</TIME_SYSTEM><MEAN_ELEMENT_THEORY>SGP4</MEAN_ELEMENT_THEORY></metadata><data><meanElements><EPOCH>2024-01-30T13:25:28.477632</EPOCH><MEAN_MOTION>13.20772694</MEAN_MOTION><ECCENTRICITY>.0002764</ECCENTRICITY><INCLINATION>87.9157</INCLINATION><RA_OF_ASC_NODE>87.3879</RA_OF_ASC_NODE><ARG_OF_PERICENTER>105.0076</ARG_OF_PERICENTER><MEAN_ANOMALY>255.1364</MEAN_ANOMALY></meanElements><tleParameters><EPHEMERIS_TYPE>0</EPHEMERIS_TYPE><CLASSIFICATION_TYPE>U</CLASSIFICATION_TYPE><NORAD_CAT_ID>49200</NORAD_CAT_ID><ELEMENT_SET_NO>999</ELEMENT_SET_NO><REV_AT_EPOCH>12213</REV_AT_EPOCH><BSTAR>.19294E-3</BSTAR><MEAN_MOTION_DOT>.91E-6</MEAN_MOTION_DOT><MEAN_MOTION_DDOT>0</MEAN_MOTION_DDOT></tleParameters></data></segment></body></omm>
<omm id="CCSDS_OMM_VERS" version="2.0">
<header><CREATION_DATE/><ORIGINATOR/></header><body><segment><metadata><OBJECT_NAME>ONEWEB-0335</OBJECT_NAME><OBJECT_ID>2021-083R</OBJECT_ID><CENTER_NAME>EARTH</CENTER_NAME><REF_FRAME>TEME</REF_FRAME><TIME_SYSTEM>UTC</TIME_SYSTEM><MEAN_ELEMENT_THEORY>SGP4</MEAN_ELEMENT_THEORY></metadata><data><meanElements><EPOCH>2024-01-30T07:55:34.370688</EPOCH><MEAN_MOTION>13.13470920</MEAN_MOTION><ECCENTRICITY>.0001569</ECCENTRICITY><INCLINATION>87.9013</INCLINATION><RA_OF_ASC_NODE>133.1866</RA_OF_ASC_NODE><ARG_OF_PERICENTER>100.4451</ARG_OF_PERICENTER><MEAN_ANOMALY>259.6855</MEAN_ANOMALY></meanElements><tleParameters><EPHEMERIS_TYPE>0</EPHEMERIS_TYPE><CLASSIFICATION_TYPE>U</CLASSIFICATION_TYPE><NORAD_CAT_ID>49201</NORAD_CAT_ID><ELEMENT_SET_NO>999</ELEMENT_SET_NO><REV_AT_EPOCH>11686</REV_AT_EPOCH><BSTAR>.44159E-4</BSTAR><MEAN_MOTION_DOT>.29E-6</MEAN_MOTION_DOT><MEAN_MOTION_DDOT>0</MEAN_MOTION_DDOT></tleParameters></data></segment></body></omm>
<omm id="CCSDS_OMM_VERS" version="2.0">
<header><CREATION_DATE/><ORIGINATOR/></header><body><segment><metadata><OBJECT_NAME>ONEWEB-0336</OBJECT_NAME><OBJECT_ID>2021-083S</OBJECT_ID><CENTER_NAME>EARTH</CENTER_NAME><REF_FRAME>TEME</REF_FRAME><TIME_SYSTEM>UTC</TIME_SYSTEM><MEAN_ELEMENT_THEORY>SGP4</MEAN_ELEMENT_THEORY></metadata><data><meanElements><EPOCH>2024-01-30T07:12:08.506080</EPOCH><MEAN_MOTION>13.13470812</MEAN_MOTION><ECCENTRICITY>.0001809</ECCENTRICITY><INCLINATION>87.9015</INCLINATION><RA_OF_ASC_NODE>133.1905</RA_OF_ASC_NODE><ARG_OF_PERICENTER>107.4847</ARG_OF_PERICENTER><MEAN_ANOMALY>252.6480</MEAN_ANOMALY></meanElements><tleParameters><EPHEMERIS_TYPE>0</EPHEMERIS_TYPE><CLASSIFICATION_TYPE>U</CLASSIFICATION_TYPE><NORAD_CAT_ID>49202</NORAD_CAT_ID><ELEMENT_SET_NO>999</ELEMENT_SET_NO><REV_AT_EPOCH>11685</REV_AT_EPOCH><BSTAR>-.52176E-3</BSTAR><MEAN_MOTION_DOT>-.178E-5</MEAN_MOTION_DOT><MEAN_MOTION_DDOT>0</MEAN_MOTION_DDOT></tleParameters></data></segment></body></omm>
<omm id="CCSDS_OMM_VERS" version="2.0">
<header><CREATION_DATE/><ORIGINATOR/></header><body><segment><metadata><OBJECT_NAME>ONEWEB-0337</OBJECT_NAME><OBJECT_ID>2021-083T</OBJECT_ID><CENTER_NAME>EARTH</CENTER_NAME><REF_FRAME>TEME</REF_FRAME><TIME_SYSTEM>UTC</TIME_SYSTEM><MEAN_ELEMENT_THEORY>SGP4</MEAN_ELEMENT_THEORY></metadata><data><meanElements><EPOCH>2024-01-30T07:25:39.162720</EPOCH><MEAN_MOTION>13.13469852</MEAN_MOTION><ECCENTRICITY>.000156</ECCENTRICITY><INCLINATION>87.9012</INCLINATION><RA_OF_ASC_NODE>133.1871</RA_OF_ASC_NODE><ARG_OF_PERICENTER>101.5617</ARG_OF_PERICENTER><MEAN_ANOMALY>258.5687</MEAN_ANOMALY></meanElements><tleParameters><EPHEMERIS_TYPE>0</EPHEMERIS_TYPE><CLASSIFICATION_TYPE>U</CLASSIFICATION_TYPE><NORAD_CAT_ID>49203</NORAD_CAT_ID><ELEMENT_SET_NO>999</ELEMENT_SET_NO><REV_AT_EPOCH>11685</REV_AT_EPOCH><BSTAR>-.12213E-2</BSTAR><MEAN_MOTION_DOT>-.433E-5</MEAN_MOTION_DOT><MEAN_MOTION_DDOT>0</MEAN_MOTION_DDOT></tleParameters></data></segment></body></omm>

</ndm>
