ONEWEB-0327             
1 49196U 21083L   24030.34272458  .00000144  00000+0  33256-3 0  9997
2 49196  87.9243 148.3720 0001289 115.4894 244.6371 13.18689883115516
ONEWEB-0328             
1 49197U 21083M   24030.33978124  .00001466  00000+0  39797-2 0  9993
2 49197  87.9007 133.1853 0001586 104.5131 255.6174 13.13466971116843
ONEWEB-0331             
1 49198U 21083N   24030.36249711  .00000105  00000+0  23299-3 0  9990
2 49198  87.9244 148.3489 0001406 105.7264 254.4023 13.18685986115507
ONEWEB-0333             
1 49199U 21083P   24030.33502013  .00000312  00000+0  81918-3 0  9997
2 49199  87.9013 133.1972 0001974 108.4379 251.6964 13.13470022116858
ONEWEB-0334             
1 49200U 21083Q   24030.55935738  .00000091  00000+0  19294-3 0  9990
2 49200  87.9157  87.3879 0002764 105.0076 255.1364 13.20772694122130
ONEWEB-0335             
1 49201U 21083R   24030.33025892  .00000029  00000+0  44159-4 0  9998
2 49201  87.9013 133.1866 0001569 100.4451 259.6855 13.13470920116862
ONEWEB-0336             
1 49202U 21083S   24030.30009845 -.00000178  00000+0 -52176-3 0  9990
2 49202  87.9015 133.1905 0001809 107.4847 252.6480 13.13470812116858
ONEWEB-0337             
1 49203U 21083T   24030.30948105 -.00000433  00000+0 -12213-2 0  9993
2 49203  87.9012 133.1871 0001560 101.5617 258.5687 13.13469852116858
